{
  "fetched_at": "2026-05-03T13:09:59.392609+00:00",
  "satellites": {
    "57166": {
      "name": "Meteor M2-3",
      "tle_line1": "1 57166U 23091A   26123.27107164  .00000010  00000+0  23194-4 0  9995",
      "tle_line2": "2 57166  98.6121 179.1605 0002946 312.3024  47.7905 14.24042921148126"
    },
    "59051": {
      "name": "Meteor M2-4",
      "tle_line1": "1 59051U 24039A   26123.30515169  .00000012  00000+0  25169-4 0  9991",
      "tle_line2": "2 59051  98.6984  83.1756 0006132 306.0934  53.9676 14.22424795112889"
    },
    "38771": {
      "name": "MetOp-B",
      "tle_line1": "1 38771U 12049A   26123.27979022  .00000115  00000+0  72582-4 0  9998",
      "tle_line2": "2 38771  98.6539 175.6671 0003545 110.7249 249.4308 14.21435366706886"
    },
    "43689": {
      "name": "MetOp-C",
      "tle_line1": "1 43689U 18087A   26119.57089331  .00000115  00000+0  72486-4 0  9996",
      "tle_line2": "2 43689  98.6676 180.0552 0000665  39.0689 321.0536 14.21512722387923"
    }
  }
}